{
    "links": {
        "self": "http://www.neowsapp.com/rest/v1/neo/3475237?api_key=iIulBulltgU6a56xZRHN4H3l9WmuAYTsLGpBGhQ2"
    },
    "id": "3475237",
    "neo_reference_id": "3475237",
    "name": "(2009 VX)",
    "designation": "2009 VX",
    "nasa_jpl_url": "http://ssd.jpl.nasa.gov/sbdb.cgi?sstr=3475237",
    "absolute_magnitude_h": 26.2,
    "estimated_diameter": {
        "kilometers": {
            "estimated_diameter_min": 0.0152951935,
            "estimated_diameter_max": 0.0342010925
        },
        "meters": {
            "estimated_diameter_min": 15.2951935344,
            "estimated_diameter_max": 34.201092472
        },
        "miles": {
            "estimated_diameter_min": 0.0095039897,
            "estimated_diameter_max": 0.021251567
        },
        "feet": {
            "estimated_diameter_min": 50.1810827555,
            "estimated_diameter_max": 112.2083122258
        }
    },
    "is_potentially_hazardous_asteroid": false,
    "close_approach_data": [
        {
            "close_approach_date": "2008-03-12",
            "close_approach_date_full": "2008-Mar-12 18:18",
            "epoch_date_close_approach": 1205345880000,
            "relative_velocity": {
                "kilometers_per_second": "5.4102729227",
                "kilometers_per_hour": "19476.9825215907",
                "miles_per_hour": "12102.2395007073"
            },
            "miss_distance": {
                "astronomical": "1.3138960253",
                "lunar": "511.1055538417",
                "kilometers": "196556046.786346111",
                "miles": "122134264.0319578918"
            },
            "orbiting_body": "Juptr"
        },
        {
            "close_approach_date": "2009-11-12",
            "close_approach_date_full": "2009-Nov-12 12:50",
            "epoch_date_close_approach": 1258030200000,
            "relative_velocity": {
                "kilometers_per_second": "13.9987019311",
                "kilometers_per_hour": "50395.3269520979",
                "miles_per_hour": "31313.6963497633"
            },
            "miss_distance": {
                "astronomical": "0.0066540881",
                "lunar": "2.5884402709",
                "kilometers": "995437.406552347",
                "miles": "618536.1225305086"
            },
            "orbiting_body": "Earth"
        },
        {
            "close_approach_date": "2009-11-12",
            "close_approach_date_full": "2009-Nov-12 18:36",
            "epoch_date_close_approach": 1258050960000,
            "relative_velocity": {
                "kilometers_per_second": "13.5888894718",
                "kilometers_per_hour": "48920.0020985711",
                "miles_per_hour": "30396.986859526"
            },
            "miss_distance": {
                "astronomical": "0.0072529851",
                "lunar": "2.8214112039",
                "kilometers": "1085031.122101737",
                "miles": "674207.0758764906"
            },
            "orbiting_body": "Moon"
        },
        {
            "close_approach_date": "2014-04-08",
            "close_approach_date_full": "2014-Apr-08 07:49",
            "epoch_date_close_approach": 1396943340000,
            "relative_velocity": {
                "kilometers_per_second": "16.9965008378",
                "kilometers_per_hour": "61187.4030161426",
                "miles_per_hour": "38019.4727241137"
            },
            "miss_distance": {
                "astronomical": "0.0886090491",
                "lunar": "34.4689200999",
                "kilometers": "13255725.008085417",
                "miles": "8236725.5779840746"
            },
            "orbiting_body": "Mars"
        }
    ],
    "orbital_data": {
        "orbit_id": "10",
        "orbit_determination_date": "2017-04-06 08:59:17",
        "first_observation_date": "2009-11-09",
        "last_observation_date": "2009-11-12",
        "data_arc_in_days": 3,
        "observations_used": 54,
        "orbit_uncertainty": "7",
        "minimum_orbit_intersection": ".00833532",
        "jupiter_tisserand_invariant": "3.090",
        "epoch_osculation": "2459000.5",
        "eccentricity": ".6659253211921666",
        "semi_major_axis": "2.530418341568256",
        "inclination": "6.5113926618944",
        "ascending_node_longitude": "44.76917019671584",
        "orbital_period": "1470.235541490983",
        "perihelion_distance": ".8453486947088653",
        "perihelion_argument": "54.97827948631281",
        "aphelion_distance": "4.215487988427646",
        "perihelion_time": "2459599.080580806362",
        "mean_anomaly": "213.4323222306541",
        "mean_motion": ".2448587249053439",
        "equinox": "J2000",
        "orbit_class": {
            "orbit_class_type": "APO",
            "orbit_class_description": "Near-Earth asteroid orbits which cross the Earth’s orbit similar to that of 1862 Apollo",
            "orbit_class_range": "a (semi-major axis) > 1.0 AU; q (perihelion) < 1.017 AU"
        }
    },
    "is_sentry_object": false
}